{
  "type": "FeatureCollection",
  "features": [
    {
      "type": "Feature",
      "properties": {
        "norad_id": 41948,
        "name": "CARTOSAT-2D",
        "group": "resource",
        "lat": -77.36430646515072,
        "lon": 93.89179948390414,
        "alt_km": 519.2144753909188,
        "timestamp": "2025-12-26T23:26:41.811046+00:00",
        "meta_object_name": "CARTOSAT-2D",
        "meta_object_id": "2017-008A",
        "meta_epoch": "2025-12-26T17:28:22.020096",
        "meta_mean_motion": 15.192028,
        "meta_eccentricity": 0.0005378,
        "meta_inclination": 97.4364,
        "meta_ra_of_asc_node": 58.0111,
        "meta_arg_of_pericenter": 113.3513,
        "meta_mean_anomaly": 246.8288,
        "meta_ephemeris_type": 0,
        "meta_classification_type": "U",
        "meta_norad_cat_id": 41948,
        "meta_element_set_no": 999,
        "meta_rev_at_epoch": 49139,
        "meta_bstar": 0.00021253,
        "meta_mean_motion_dot": 4.407e-05,
        "meta_mean_motion_ddot": 0,
        "tle_line1": "1 41948U 17008A   25360.72803264  .00004407  00000+0  21253-3 0  9990",
        "tle_line2": "2 41948  97.4364  58.0111 0005378 113.3513 246.8288 15.19202800491399"
      },
      "geometry": {
        "type": "Point",
        "coordinates": [
          93.89179948390414,
          -77.36430646515072
        ]
      }
    },
    {
      "type": "Feature",
      "properties": {
        "norad_id": 42063,
        "name": "SENTINEL-2B",
        "group": "resource",
        "lat": 36.27324229563318,
        "lon": 66.86862911124499,
        "alt_km": 785.9010961724798,
        "timestamp": "2025-12-26T23:26:41.811054+00:00",
        "meta_object_name": "SENTINEL-2B",
        "meta_object_id": "2017-013A",
        "meta_epoch": "2025-12-26T18:14:19.687776",
        "meta_mean_motion": 14.30816982,
        "meta_eccentricity": 0.0001183,
        "meta_inclination": 98.5695,
        "meta_ra_of_asc_node": 73.008,
        "meta_arg_of_pericenter": 88.4776,
        "meta_mean_anomaly": 271.6543,
        "meta_ephemeris_type": 0,
        "meta_classification_type": "U",
        "meta_norad_cat_id": 42063,
        "meta_element_set_no": 999,
        "meta_rev_at_epoch": 45998,
        "meta_bstar": 0.00014152,
        "meta_mean_motion_dot": 3.27e-06,
        "meta_mean_motion_ddot": 0,
        "tle_line1": "1 42063U 17013A   25360.75995009  .00000327  00000+0  14152-3 0  9994",
        "tle_line2": "2 42063  98.5695  73.0080 0001183  88.4776 271.6543 14.30816982459985"
      },
      "geometry": {
        "type": "Point",
        "coordinates": [
          66.86862911124499,
          36.27324229563318
        ]
      }
    },
    {
      "type": "Feature",
      "properties": {
        "norad_id": 42767,
        "name": "CARTOSAT-2E",
        "group": "resource",
        "lat": -9.616930866613952,
        "lon": -122.89533082523664,
        "alt_km": 510.80285889611787,
        "timestamp": "2025-12-26T23:26:41.811063+00:00",
        "meta_object_name": "CARTOSAT-2E",
        "meta_object_id": "2017-036C",
        "meta_epoch": "2025-12-26T17:52:14.952864",
        "meta_mean_motion": 15.19212717,
        "meta_eccentricity": 0.0002618,
        "meta_inclination": 97.4535,
        "meta_ra_of_asc_node": 58.1466,
        "meta_arg_of_pericenter": 167.0617,
        "meta_mean_anomaly": 193.0685,
        "meta_ephemeris_type": 0,
        "meta_classification_type": "U",
        "meta_norad_cat_id": 42767,
        "meta_element_set_no": 999,
        "meta_rev_at_epoch": 47196,
        "meta_bstar": 0.00027964,
        "meta_mean_motion_dot": 5.82e-05,
        "meta_mean_motion_ddot": 0,
        "tle_line1": "1 42767U 17036C   25360.74461751  .00005820  00000+0  27964-3 0  9999",
        "tle_line2": "2 42767  97.4535  58.1466 0002618 167.0617 193.0685 15.19212717471961"
      },
      "geometry": {
        "type": "Point",
        "coordinates": [
          -122.89533082523664,
          -9.616930866613952
        ]
      }
    },
    {
      "type": "Feature",
      "properties": {
        "norad_id": 42920,
        "name": "FORMOSAT-5",
        "group": "resource",
        "lat": -17.003490252110595,
        "lon": 77.54947767781897,
        "alt_km": 728.0385905618732,
        "timestamp": "2025-12-26T23:26:41.811072+00:00",
        "meta_object_name": "FORMOSAT-5",
        "meta_object_id": "2017-049A",
        "meta_epoch": "2025-12-26T18:33:29.513664",
        "meta_mean_motion": 14.50768665,
        "meta_eccentricity": 0.0009856,
        "meta_inclination": 98.2437,
        "meta_ra_of_asc_node": 74.8091,
        "meta_arg_of_pericenter": 253.4548,
        "meta_mean_anomaly": 106.5565,
        "meta_ephemeris_type": 0,
        "meta_classification_type": "U",
        "meta_norad_cat_id": 42920,
        "meta_element_set_no": 999,
        "meta_rev_at_epoch": 44167,
        "meta_bstar": 7.7222e-05,
        "meta_mean_motion_dot": 2.6e-06,
        "meta_mean_motion_ddot": 0,
        "tle_line1": "1 42920U 17049A   25360.77325826  .00000260  00000+0  77222-4 0  9995",
        "tle_line2": "2 42920  98.2437  74.8091 0009856 253.4548 106.5565 14.50768665441678"
      },
      "geometry": {
        "type": "Point",
        "coordinates": [
          77.54947767781897,
          -17.003490252110595
        ]
      }
    },
    {
      "type": "Feature",
      "properties": {
        "norad_id": 42969,
        "name": "SENTINEL-5P",
        "group": "resource",
        "lat": -36.079647955427234,
        "lon": 112.96963575966927,
        "alt_km": 833.686969245804,
        "timestamp": "2025-12-26T23:26:41.811082+00:00",
        "meta_object_name": "SENTINEL-5P",
        "meta_object_id": "2017-064A",
        "meta_epoch": "2025-12-26T17:21:12.169728",
        "meta_mean_motion": 14.19520951,
        "meta_eccentricity": 0.0001066,
        "meta_inclination": 98.7802,
        "meta_ra_of_asc_node": 299.1843,
        "meta_arg_of_pericenter": 91.0221,
        "meta_mean_anomaly": 269.1077,
        "meta_ephemeris_type": 0,
        "meta_classification_type": "U",
        "meta_norad_cat_id": 42969,
        "meta_element_set_no": 999,
        "meta_rev_at_epoch": 42509,
        "meta_bstar": 6.9246e-05,
        "meta_mean_motion_dot": 1.02e-06,
        "meta_mean_motion_ddot": 0,
        "tle_line1": "1 42969U 17064A   25360.72305752  .00000102  00000+0  69246-4 0  9998",
        "tle_line2": "2 42969  98.7802 299.1843 0001066  91.0221 269.1077 14.19520951425099"
      },
      "geometry": {
        "type": "Point",
        "coordinates": [
          112.96963575966927,
          -36.079647955427234
        ]
      }
    },
    {
      "type": "Feature",
      "properties": {
        "norad_id": 42987,
        "name": "SKYSAT-C11",
        "group": "resource",
        "lat": 50.487845249595054,
        "lon": 129.74040605902056,
        "alt_km": 417.2361196744132,
        "timestamp": "2025-12-26T23:26:41.811091+00:00",
        "meta_object_name": "SKYSAT-C11",
        "meta_object_id": "2017-068A",
        "meta_epoch": "2025-12-26T15:28:06.129696",
        "meta_mean_motion": 15.48052469,
        "meta_eccentricity": 0.00011424,
        "meta_inclination": 97.415,
        "meta_ra_of_asc_node": 138.4858,
        "meta_arg_of_pericenter": 94.6994,
        "meta_mean_anomaly": 265.4386,
        "meta_ephemeris_type": 0,
        "meta_classification_type": "U",
        "meta_norad_cat_id": 42987,
        "meta_element_set_no": 999,
        "meta_rev_at_epoch": 45646,
        "meta_bstar": 0.00044126098,
        "meta_mean_motion_dot": 0.00023044,
        "meta_mean_motion_ddot": 0,
        "tle_line1": "1 42987U 17068A   25360.64451539  .00023044  00000+0  44126-3 0  9997",
        "tle_line2": "2 42987  97.4150 138.4858 0001142  94.6994 265.4386 15.48052469456467"
      },
      "geometry": {
        "type": "Point",
        "coordinates": [
          129.74040605902056,
          50.487845249595054
        ]
      }
    },
    {
      "type": "Feature",
      "properties": {
        "norad_id": 42988,
        "name": "SKYSAT-C10",
        "group": "resource",
        "lat": 51.40660628947163,
        "lon": 122.46423431761282,
        "alt_km": 463.2379157628584,
        "timestamp": "2025-12-26T23:26:41.811100+00:00",
        "meta_object_name": "SKYSAT-C10",
        "meta_object_id": "2017-068B",
        "meta_epoch": "2025-12-26T07:32:29.639616",
        "meta_mean_motion": 15.31865933,
        "meta_eccentricity": 0.00035329,
        "meta_inclination": 97.4259,
        "meta_ra_of_asc_node": 131.2058,
        "meta_arg_of_pericenter": 75.9386,
        "meta_mean_anomaly": 284.2248,
        "meta_ephemeris_type": 0,
        "meta_classification_type": "U",
        "meta_norad_cat_id": 42988,
        "meta_element_set_no": 999,
        "meta_rev_at_epoch": 45587,
        "meta_bstar": 0.00043148075,
        "meta_mean_motion_dot": 0.00013208,
        "meta_mean_motion_ddot": 0,
        "tle_line1": "1 42988U 17068B   25360.31423194  .00013208  00000+0  43148-3 0  9992",
        "tle_line2": "2 42988  97.4259 131.2058 0003532  75.9386 284.2248 15.31865933455873"
      },
      "geometry": {
        "type": "Point",
        "coordinates": [
          122.46423431761282,
          51.40660628947163
        ]
      }
    }
  ]
}